{
    "links": {
        "self": "http://www.neowsapp.com/rest/v1/neo/3634906?api_key=iIulBulltgU6a56xZRHN4H3l9WmuAYTsLGpBGhQ2"
    },
    "id": "3634906",
    "neo_reference_id": "3634906",
    "name": "(2013 HR)",
    "designation": "2013 HR",
    "nasa_jpl_url": "http://ssd.jpl.nasa.gov/sbdb.cgi?sstr=3634906",
    "absolute_magnitude_h": 23.7,
    "estimated_diameter": {
        "kilometers": {
            "estimated_diameter_min": 0.0483676488,
            "estimated_diameter_max": 0.1081533507
        },
        "meters": {
            "estimated_diameter_min": 48.3676488219,
            "estimated_diameter_max": 108.1533506775
        },
        "miles": {
            "estimated_diameter_min": 0.0300542543,
            "estimated_diameter_max": 0.0672033557
        },
        "feet": {
            "estimated_diameter_min": 158.6865169607,
            "estimated_diameter_max": 354.8338390368
        }
    },
    "is_potentially_hazardous_asteroid": false,
    "close_approach_data": [
        {
            "close_approach_date": "2013-04-01",
            "close_approach_date_full": "2013-Apr-01 10:24",
            "epoch_date_close_approach": 1364811840000,
            "relative_velocity": {
                "kilometers_per_second": "14.0836290527",
                "kilometers_per_hour": "50701.0645897358",
                "miles_per_hour": "31503.6698279945"
            },
            "miss_distance": {
                "astronomical": "0.0543838712",
                "lunar": "21.1553258968",
                "kilometers": "8135711.293874344",
                "miles": "5055296.5807961872"
            },
            "orbiting_body": "Earth"
        }
    ],
    "orbital_data": {
        "orbit_id": "7",
        "orbit_determination_date": "2017-04-06 08:46:04",
        "first_observation_date": "2013-04-16",
        "last_observation_date": "2013-04-21",
        "data_arc_in_days": 5,
        "observations_used": 18,
        "orbit_uncertainty": "8",
        "minimum_orbit_intersection": ".0319369",
        "jupiter_tisserand_invariant": "3.112",
        "epoch_osculation": "2456399.5",
        "eccentricity": ".6767150276288204",
        "semi_major_axis": "2.480996949256839",
        "inclination": "3.798829479888831",
        "ascending_node_longitude": "224.8849003710309",
        "orbital_period": "1427.373968890872",
        "perihelion_distance": ".8020690301934781",
        "perihelion_argument": "271.5292088854069",
        "aphelion_distance": "4.1599248683202",
        "perihelion_time": "2456346.495835069442",
        "mean_anomaly": "13.36825512505877",
        "mean_motion": ".2522114090953576",
        "equinox": "J2000",
        "orbit_class": {
            "orbit_class_type": "APO",
            "orbit_class_description": "Near-Earth asteroid orbits which cross the Earth’s orbit similar to that of 1862 Apollo",
            "orbit_class_range": "a (semi-major axis) > 1.0 AU; q (perihelion) < 1.017 AU"
        }
    },
    "is_sentry_object": false
}